[{"CCSDS_OMM_VERS":"2.0","COMMENT":"GENERATED VIA SPACE-TRACK.ORG API","CREATION_DATE":"2020-05-06T15:58:32","ORIGINATOR":"18 SPCS","OBJECT_NAME":"ONEWEB-0007","OBJECT_ID":"2019-010D","CENTER_NAME":"EARTH","REF_FRAME":"TEME","TIME_SYSTEM":"UTC","MEAN_ELEMENT_THEORY":"SGP4","EPOCH":"2020-05-06T06:00:00.999648","MEAN_MOTION":"13.21832608","ECCENTRICITY":"0.00021200","INCLINATION":"87.9198","RA_OF_ASC_NODE":"342.8198","ARG_OF_PERICENTER":"86.0234","MEAN_ANOMALY":"230.3048","EPHEMERIS_TYPE":"0","CLASSIFICATION_TYPE":"U","NORAD_CAT_ID":"44060","ELEMENT_SET_NO":"999","REV_AT_EPOCH":"172","BSTAR":"-0.10421000000000","MEAN_MOTION_DOT":"-0.00042827","MEAN_MOTION_DDOT":"0.0000000000000","SEMIMAJOR_AXIS":"7555.865","PERIOD":"108.939","APOAPSIS":"1179.332","PERIAPSIS":"1176.128","OBJECT_TYPE":"PAYLOAD","RCS_SIZE":"LARGE","COUNTRY_CODE":"UK","LAUNCH_DATE":"2019-02-27","SITE":"FRGUI","DECAY_DATE":null,"FILE":"2745048","GP_ID":"153487116","TLE_LINE0":"0 ONEWEB-0007","TLE_LINE1":"1 44060U 19010D   20127.25001157 -.00042827 +00000-0 -10421+0 0  9990","TLE_LINE2":"2 44060 087.9198 342.8198 0002120 086.0234 230.3048 13.21832608001725"},{"CCSDS_OMM_VERS":"2.0","COMMENT":"GENERATED VIA SPACE-TRACK.ORG API","CREATION_DATE":"2020-05-06T14:16:08","ORIGINATOR":"18 SPCS","OBJECT_NAME":"ONEWEB-0007","OBJECT_ID":"2019-010D","CENTER_NAME":"EARTH","REF_FRAME":"TEME","TIME_SYSTEM":"UTC","MEAN_ELEMENT_THEORY":"SGP4","EPOCH":"2020-05-06T14:00:01.000224","MEAN_MOTION":"13.21810655","ECCENTRICITY":"0.00020870","INCLINATION":"87.9195","RA_OF_ASC_NODE":"342.7535","ARG_OF_PERICENTER":"86.5784","MEAN_ANOMALY":"15.0163","EPHEMERIS_TYPE":"0","CLASSIFICATION_TYPE":"U","NORAD_CAT_ID":"44060","ELEMENT_SET_NO":"999","REV_AT_EPOCH":"5752","BSTAR":"0.03173100000000","MEAN_MOTION_DOT":"0.00013134","MEAN_MOTION_DDOT":"0.0000000000000","SEMIMAJOR_AXIS":"7555.948","PERIOD":"108.941","APOAPSIS":"1179.390","PERIAPSIS":"1176.236","OBJECT_TYPE":"PAYLOAD","RCS_SIZE":"LARGE","COUNTRY_CODE":"UK","LAUNCH_DATE":"2019-02-27","SITE":"FRGUI","DECAY_DATE":null,"FILE":"2744882","GP_ID":"153464591","TLE_LINE0":"0 ONEWEB-0007","TLE_LINE1":"1 44060U 19010D   20127.58334491  .00013134  00000-0  31731-1 0  9992","TLE_LINE2":"2 44060  87.9195 342.7535 0002087  86.5784  15.0163 13.21810655 57526"},{"CCSDS_OMM_VERS":"2.0","COMMENT":"GENERATED VIA SPACE-TRACK.ORG API","CREATION_DATE":"2020-05-07T01:13:12","ORIGINATOR":"18 SPCS","OBJECT_NAME":"ONEWEB-0007","OBJECT_ID":"2019-010D","CENTER_NAME":"EARTH","REF_FRAME":"TEME","TIME_SYSTEM":"UTC","MEAN_ELEMENT_THEORY":"SGP4","EPOCH":"2020-05-06T22:00:00.999936","MEAN_MOTION":"13.21794252","ECCENTRICITY":"0.00020550","INCLINATION":"87.9192","RA_OF_ASC_NODE":"342.6861","ARG_OF_PERICENTER":"85.3440","MEAN_ANOMALY":"161.5248","EPHEMERIS_TYPE":"0","CLASSIFICATION_TYPE":"U","NORAD_CAT_ID":"44060","ELEMENT_SET_NO":"999","REV_AT_EPOCH":"170","BSTAR":"0.06677300000000","MEAN_MOTION_DOT":"0.00027662","MEAN_MOTION_DDOT":"0.0000000000000","SEMIMAJOR_AXIS":"7556.011","PERIOD":"108.942","APOAPSIS":"1179.429","PERIAPSIS":"1176.323","OBJECT_TYPE":"PAYLOAD","RCS_SIZE":"LARGE","COUNTRY_CODE":"UK","LAUNCH_DATE":"2019-02-27","SITE":"FRGUI","DECAY_DATE":null,"FILE":"2745210","GP_ID":"153510966","TLE_LINE0":"0 ONEWEB-0007","TLE_LINE1":"1 44060U 19010D   20127.91667824 +.00027662 +00000-0 +66773-1 0  9993","TLE_LINE2":"2 44060 087.9192 342.6861 0002055 085.3440 161.5248 13.21794252001709"},{"CCSDS_OMM_VERS":"2.0","COMMENT":"GENERATED VIA SPACE-TRACK.ORG API","CREATION_DATE":"2020-05-07T19:29:13","ORIGINATOR":"18 SPCS","OBJECT_NAME":"ONEWEB-0007","OBJECT_ID":"2019-010D","CENTER_NAME":"EARTH","REF_FRAME":"TEME","TIME_SYSTEM":"UTC","MEAN_ELEMENT_THEORY":"SGP4","EPOCH":"2020-05-07T14:00:01.000224","MEAN_MOTION":"13.21810110","ECCENTRICITY":"0.00020850","INCLINATION":"87.9186","RA_OF_ASC_NODE":"342.5536","ARG_OF_PERICENTER":"87.1282","MEAN_ANOMALY":"90.2551","EPHEMERIS_TYPE":"0","CLASSIFICATION_TYPE":"U","NORAD_CAT_ID":"44060","ELEMENT_SET_NO":"999","REV_AT_EPOCH":"172","BSTAR":"0.02720300000000","MEAN_MOTION_DOT":"0.00011259","MEAN_MOTION_DDOT":"0.0000000000000","SEMIMAJOR_AXIS":"7555.950","PERIOD":"108.941","APOAPSIS":"1179.391","PERIAPSIS":"1176.240","OBJECT_TYPE":"PAYLOAD","RCS_SIZE":"LARGE","COUNTRY_CODE":"UK","LAUNCH_DATE":"2019-02-27","SITE":"FRGUI","DECAY_DATE":null,"FILE":"2745493","GP_ID":"153537114","TLE_LINE0":"0 ONEWEB-0007","TLE_LINE1":"1 44060U 19010D   20128.58334491 +.00011259 +00000-0 +27203-1 0  9998","TLE_LINE2":"2 44060 087.9186 342.5536 0002085 087.1282 090.2551 13.21810110001726"},{"CCSDS_OMM_VERS":"2.0","COMMENT":"GENERATED VIA SPACE-TRACK.ORG API","CREATION_DATE":"2020-05-08T02:15:53","ORIGINATOR":"18 SPCS","OBJECT_NAME":"ONEWEB-0007","OBJECT_ID":"2019-010D","CENTER_NAME":"EARTH","REF_FRAME":"TEME","TIME_SYSTEM":"UTC","MEAN_ELEMENT_THEORY":"SGP4","EPOCH":"2020-05-07T22:00:00.999936","MEAN_MOTION":"13.21791724","ECCENTRICITY":"0.00020710","INCLINATION":"87.9184","RA_OF_ASC_NODE":"342.4861","ARG_OF_PERICENTER":"85.8822","MEAN_ANOMALY":"236.7737","EPHEMERIS_TYPE":"0","CLASSIFICATION_TYPE":"U","NORAD_CAT_ID":"44060","ELEMENT_SET_NO":"999","REV_AT_EPOCH":"169","BSTAR":"0.07192800000000","MEAN_MOTION_DOT":"0.00029802","MEAN_MOTION_DDOT":"0.0000000000000","SEMIMAJOR_AXIS":"7556.020","PERIOD":"108.943","APOAPSIS":"1179.450","PERIAPSIS":"1176.321","OBJECT_TYPE":"PAYLOAD","RCS_SIZE":"LARGE","COUNTRY_CODE":"UK","LAUNCH_DATE":"2019-02-27","SITE":"FRGUI","DECAY_DATE":null,"FILE":"2745827","GP_ID":"153564549","TLE_LINE0":"0 ONEWEB-0007","TLE_LINE1":"1 44060U 19010D   20128.91667824 +.00029802 +00000-0 +71928-1 0  9990","TLE_LINE2":"2 44060 087.9184 342.4861 0002071 085.8822 236.7737 13.21791724001692"},{"CCSDS_OMM_VERS":"2.0","COMMENT":"GENERATED VIA SPACE-TRACK.ORG API","CREATION_DATE":"2020-05-08T06:16:09","ORIGINATOR":"18 SPCS","OBJECT_NAME":"ONEWEB-0007","OBJECT_ID":"2019-010D","CENTER_NAME":"EARTH","REF_FRAME":"TEME","TIME_SYSTEM":"UTC","MEAN_ELEMENT_THEORY":"SGP4","EPOCH":"2020-05-08T06:00:00.999648","MEAN_MOTION":"13.21829932","ECCENTRICITY":"0.00021250","INCLINATION":"87.9182","RA_OF_ASC_NODE":"342.4200","ARG_OF_PERICENTER":"86.3856","MEAN_ANOMALY":"21.5183","EPHEMERIS_TYPE":"0","CLASSIFICATION_TYPE":"U","NORAD_CAT_ID":"44060","ELEMENT_SET_NO":"999","REV_AT_EPOCH":"5774","BSTAR":"-0.10785000000000","MEAN_MOTION_DOT":"-0.00044315","MEAN_MOTION_DDOT":"0.0000000000000","SEMIMAJOR_AXIS":"7555.875","PERIOD":"108.939","APOAPSIS":"1179.346","PERIAPSIS":"1176.134","OBJECT_TYPE":"PAYLOAD","RCS_SIZE":"LARGE","COUNTRY_CODE":"UK","LAUNCH_DATE":"2019-02-27","SITE":"FRGUI","DECAY_DATE":null,"FILE":"2745837","GP_ID":"153585885","TLE_LINE0":"0 ONEWEB-0007","TLE_LINE1":"1 44060U 19010D   20129.25001157 -.00044315  00000-0 -10785+0 0  9999","TLE_LINE2":"2 44060  87.9182 342.4200 0002125  86.3856  21.5183 13.21829932 57745"},{"CCSDS_OMM_VERS":"2.0","COMMENT":"GENERATED VIA SPACE-TRACK.ORG API","CREATION_DATE":"2020-05-08T22:16:09","ORIGINATOR":"18 SPCS","OBJECT_NAME":"ONEWEB-0007","OBJECT_ID":"2019-010D","CENTER_NAME":"EARTH","REF_FRAME":"TEME","TIME_SYSTEM":"UTC","MEAN_ELEMENT_THEORY":"SGP4","EPOCH":"2020-05-08T22:00:00.999936","MEAN_MOTION":"13.21789665","ECCENTRICITY":"0.00020600","INCLINATION":"87.9180","RA_OF_ASC_NODE":"342.2860","ARG_OF_PERICENTER":"86.2795","MEAN_ANOMALY":"312.1577","EPHEMERIS_TYPE":"0","CLASSIFICATION_TYPE":"U","NORAD_CAT_ID":"44060","ELEMENT_SET_NO":"999","REV_AT_EPOCH":"5783","BSTAR":"0.07923500000000","MEAN_MOTION_DOT":"0.00032838","MEAN_MOTION_DDOT":"0.0000000000000","SEMIMAJOR_AXIS":"7556.028","PERIOD":"108.943","APOAPSIS":"1179.450","PERIAPSIS":"1176.337","OBJECT_TYPE":"PAYLOAD","RCS_SIZE":"LARGE","COUNTRY_CODE":"UK","LAUNCH_DATE":"2019-02-27","SITE":"FRGUI","DECAY_DATE":null,"FILE":"2746154","GP_ID":"153613435","TLE_LINE0":"0 ONEWEB-0007","TLE_LINE1":"1 44060U 19010D   20129.91667824  .00032838  00000-0  79235-1 0  9993","TLE_LINE2":"2 44060  87.9180 342.2860 0002060  86.2795 312.1577 13.21789665 57836"},{"CCSDS_OMM_VERS":"2.0","COMMENT":"GENERATED VIA SPACE-TRACK.ORG API","CREATION_DATE":"2020-05-09T14:16:09","ORIGINATOR":"18 SPCS","OBJECT_NAME":"ONEWEB-0007","OBJECT_ID":"2019-010D","CENTER_NAME":"EARTH","REF_FRAME":"TEME","TIME_SYSTEM":"UTC","MEAN_ELEMENT_THEORY":"SGP4","EPOCH":"2020-05-09T14:00:01.000224","MEAN_MOTION":"13.21811005","ECCENTRICITY":"0.00020610","INCLINATION":"87.9180","RA_OF_ASC_NODE":"342.1534","ARG_OF_PERICENTER":"86.8396","MEAN_ANOMALY":"242.1054","EPHEMERIS_TYPE":"0","CLASSIFICATION_TYPE":"U","NORAD_CAT_ID":"44060","ELEMENT_SET_NO":"999","REV_AT_EPOCH":"5791","BSTAR":"0.01927900000000","MEAN_MOTION_DOT":"0.00007981","MEAN_MOTION_DDOT":"0.0000000000000","SEMIMAJOR_AXIS":"7555.947","PERIOD":"108.941","APOAPSIS":"1179.369","PERIAPSIS":"1176.255","OBJECT_TYPE":"PAYLOAD","RCS_SIZE":"LARGE","COUNTRY_CODE":"UK","LAUNCH_DATE":"2019-02-27","SITE":"FRGUI","DECAY_DATE":null,"FILE":"2746528","GP_ID":"153661150","TLE_LINE0":"0 ONEWEB-0007","TLE_LINE1":"1 44060U 19010D   20130.58334491  .00007981  00000-0  19279-1 0  9992","TLE_LINE2":"2 44060  87.9180 342.1534 0002061  86.8396 242.1054 13.21811005 57912"}]